SatCatId,ObjectName,LaunchYear,OrbitalPeriod,LaunchMass,StatusCode,Inclination,Status,UcsData,OrbitClassEstimated,LaunchSiteCountry,Owner,UseType,Purpose,LaunchVehicleClass,TLE1,TLE2,MeanMotion,Eccentricity,OrbitClass
41380,SES-9,2016,1436.12,5271.0,+,0.03,Active,1,GSO,USA,SES,Commercial,Communications,Falcon,1 41380U 16013A   23080.49315878 -.00000362  00000+0  00000+0 0  9995,2 41380   0.0285 275.8602 0001839 130.2704  58.4349  1.00270075 25575,1.00270075,0.0001839,GEO
41382,EUTELSAT 65 WEST A,2016,1436.09,6654.0,+,0.07,Active,1,GSO,French Guiana,EUTELSAT,Commercial,Communications,Ariane,1 41382U 16014A   23081.22421012 -.00000292  00000+0  00000+0 0  9990,2 41382   0.0650  33.6797 0001982 329.4429 191.8507  1.00272274 25787,1.00272274,0.0001982,GEO
41384,IRNSS-1F,2016,1436.14,1425.0,+,2.61,Active,1,GSO,India,India,Government,Navigation (Global or Regional Positioning),PSLV,1 41384U 16015A   23081.05743890  .00000145  00000+0  00000+0 0  9991,2 41384   2.6098 138.4123 0021822 192.2281 261.8401  1.00268671 25795,1.00268671,0.0021822,GSO
41386,RESURS P3,2016,92.06,5900.0,P,97.18,Active,1,LEO,Kazakhstan,Russia/USSR,Commercial/Government,Earth Observation,Soyuz,1 41386U 16016A   23081.75347569  .00035357  00000+0  37017-3 0  9999,2 41386  97.1758 168.0224 0012169 137.2024 223.0185 15.64260075393330,15.64260075,0.0012169,LEO
41394,COSMOS 2515,2016,95.97,4000.0,+,97.93,Active,1,LEO,Russia,Russia/USSR,Military,Earth Observation,Soyuz,1 41394U 16020A   23081.46782387  .00002758  00000+0  22192-3 0  9999,2 41394  97.9260  47.1731 0030335 326.0277  33.8988 15.00512594382611,15.00512594,0.0030335,LEO
41434,BEIDOU-2 IGSO-6,2016,1436.1,4200.0,+,58.51,Active,1,GSO,PRC,China,Government/Military,Navigation (Global or Regional Positioning),Long March,1 41434U 16021A   23081.36993992 -.00000158  00000+0  00000+0 0  9993,2 41434  58.5103  49.9638 0048506 226.1593 132.8285  1.00271732 25616,1.00271732,0.0048506,GSO
41456,SENTINEL-1B,2016,98.65,2300.0,-,98.18,Inactive,1,LEO,French Guiana,ESA,Government,Earth Observation,Soyuz,1 41456U 16025A   23081.46269418  .00000511  00000+0  11686-3 0  9999,2 41456  98.1824  89.8964 0001529  99.2450 260.9002 14.59709454367737,14.59709454,0.0001529,LEO
41457,MICROSCOPE,2016,98.96,-1.0,-,98.26,Inactive,0,LEO,French Guiana,France,Unknown,Unknown,Unknown,1 41457U 16025B   23081.50111088  .00001751  00000+0  41572-3 0  9998,2 41457  98.2569  88.1463 0000785 105.8256 254.3028 14.55160263366450,14.55160263,7.85e-05,LEO
41458,OUFTI-1,2016,94.3,-1.0,-,98.19,Inactive,0,LEO,French Guiana,Belgium,Unknown,Unknown,Unknown,1 41458U 16025C   23081.51227618  .00039062  00000+0  12154-2 0  9996,2 41458  98.1899 276.4757 0112598  33.3820 327.4450 15.27127157379799,15.27127157,0.0112598,LEO
41459,E-ST@R-II,2016,94.45,-1.0,+,98.19,Active,0,LEO,French Guiana,Italy,Unknown,Unknown,Unknown,1 41459U 16025D   23081.48171444  .00031772  00000+0  10515-2 0  9997,2 41459  98.1929 274.3176 0118203  40.1816 320.8164 15.24696085379669,15.24696085,0.0118203,LEO
41460,AAUSAT 4,2016,93.49,1.0,+,98.17,Active,1,LEO,French Guiana,Denmark,Civil,Earth Observation,Soyuz,1 41460U 16025E   23081.54681317  .00078981  00000+0  17243-2 0  9999,2 41460  98.1725 284.3400 0082282   2.0236  81.5451 15.40331461380367,15.40331461,0.0082282,LEO
41464,MVL-300,2016,93.15,645.0,+,97.01,Active,1,LEO,Russia,Russia/USSR,Civil/Government,Space Science,Soyuz,1 41464U 16026A   23081.43773241  .00042910  00000+0  87973-3 0  9991,2 41464  97.0109 301.9306 0007188 237.2437 245.4433 15.45911449385689,15.45911449,0.0007188,LEO
41465,AIST-2D (RS-48),2016,92.72,-1.0,+,97.01,Active,0,LEO,Russia,Russia/USSR,Unknown,Unknown,Unknown,1 41465U 16026B   23081.58281951  .00026323  00000+0  42014-3 0  9997,2 41465  97.0122 314.6164 0007328 180.6101 236.6015 15.53152199386501,15.53152199,0.0007328,LEO
41469,IRNSS-1G,2016,1436.05,1425.0,+,2.51,Active,1,GSO,India,India,Government,Navigation (Global or Regional Positioning),PSLV,1 41469U 16027A   23080.85583029 -.00000349  00000+0  00000+0 0  9998,2 41469   2.5139 140.5050 0006587 287.2647 188.8778  1.00275279 25314,1.00275279,0.0006587,GSO
41471,JCSAT-2B,2016,1436.12,4500.0,+,0.03,Active,1,GSO,USA,Japan,Commercial,Communications,Falcon,1 41471U 16028A   23080.82549492 -.00000182  00000+0  00000+0 0  9990,2 41471   0.0254 171.8613 0000690 192.3259 266.0553  1.00270512 25229,1.00270512,6.9e-05,GEO
41473,YAOGAN-30,2016,97.55,2700.0,+,98.07,Active,1,LEO,PRC,China,Military,Earth Observation,Long March,1 41473U 16029A   23081.38543756  .00001445  00000+0  21572-3 0  9995,2 41473  98.0722 128.5219 0019123  72.8853 287.4445 14.76223217369159,14.76223217,0.0019123,LEO
41549,GSAT0211 (GALILEO 14),2016,844.71,723.0,+,55.6,Active,1,MEO,French Guiana,ESA,Commercial,Navigation (Global or Regional Positioning),Soyuz,1 41549U 16030A   23080.65404859  .00000006  00000+0  00000+0 0  9991,2 41549  55.6019 254.2585 0003728   8.7927 351.1690  1.70473559 42478,1.70473559,0.0003728,MEO
41550,GSAT0210 (GALILEO 13),2016,844.71,723.0,+,55.6,Active,1,MEO,French Guiana,ESA,Commercial,Navigation (Global or Regional Positioning),Soyuz,1 41550U 16030B   23079.18581226  .00000015  00000+0  00000+0 0  9993,2 41550  55.6013 254.3004 0001705 345.9452  14.0158  1.70473527 42461,1.70473527,0.0001705,MEO
41552,THAICOM 8,2016,1436.1,3025.0,+,0.07,Active,1,GSO,USA,Thailand,Commercial,Communications,Falcon,1 41552U 16031A   23080.74633000 -.00000138  00000+0  00000+0 0  9995,2 41552   0.0688  43.5558 0004701 351.0172 131.6149  1.00271439 24853,1.00271439,0.0004701,GEO
41554,COSMOS 2516 [GLONASS-M],2016,675.72,1415.0,+,63.88,Active,1,MEO,Russia,Russia/USSR,Commercial/Military,Navigation (Global or Regional Positioning),Soyuz,1 41554U 16032A   23080.45922012  .00000004  00000+0  00000+0 0  9991,2 41554  63.8809 231.8352 0014303 212.0489 147.8203  2.13106376 53008,2.13106376,0.0014303,MEO
41556,ZIYUAN 3-2 (ZY 3-2),2016,94.65,2630.0,+,97.5,Active,1,LEO,PRC,China,Government,Earth Observation,Long March,1 41556U 16033A   23081.44201184  .00010739  00000+0  48204-3 0  9992,2 41556  97.5013 154.8242 0002128   5.1434 123.1750 15.21357281378163,15.21357281,0.0002128,LEO
41557,NUSAT-1 (FRESCO),2016,92.97,-1.0,+,97.38,Active,0,LEO,PRC,Argentina,Unknown,Unknown,Unknown,1 41557U 16033B   23081.44531640  .00056683  00000+0  10449-2 0  9993,2 41557  97.3825 186.6099 0007953 104.8533 317.4918 15.48922843380151,15.48922843,0.0007953,LEO
41558,NUSAT-2 (BATATA),2016,92.84,-1.0,+,97.41,Active,0,LEO,PRC,Argentina,Unknown,Unknown,Unknown,1 41558U 16033C   23081.46321564  .00063205  00000+0  10778-2 0  9991,2 41558  97.4102 194.0118 0007006  92.4123 331.8825 15.51119246380473,15.51119246,0.0007006,LEO
41579,COSMOS 2517 (GEO-IK 2),2016,103.9,900.0,+,99.22,Active,1,LEO,Russia,Russia/USSR,Military,Earth Observation,Rokot,1 41579U 16034A   23081.53788765 -.00000518  00000+0 -41245-3 0  9997,2 41579  99.2164  95.3983 0000813 103.7001 256.4268 13.85891001343818,13.85891001,8.13e-05,LEO
41581,INTELSAT 31 (IS-31),2016,1436.14,6450.0,+,0.02,Active,1,GSO,Kazakhstan,INTELSAT,Commercial,Communications,Proton,1 41581U 16035A   23075.58958160 -.00000158  00000+0  00000+0 0  9996,2 41581   0.0203 226.2185 0002448 332.9524  91.9096  1.00268619 24775,1.00268619,0.0002448,GEO
41586,BEIDOU-2 G7,2016,1436.18,3800.0,+,1.49,Active,1,GSO,PRC,China,Government/Military,Navigation (Global or Regional Positioning),Long March,1 41586U 16037A   23081.49735090 -.00000367  00000+0  00000+0 0  9997,2 41586   1.4938  64.8036 0010077 346.5438  57.8721  1.00265855 24925,1.00265855,0.0010077,GSO
41588,ABS-2A (MONGOLSAT-1),2016,1436.14,1800.0,+,0.03,Active,1,GSO,USA,ABS,Commercial,Communications,Falcon,1 41588U 16038A   23080.74633000 -.00000100  00000+0  00000+0 0  9990,2 41588   0.0263 181.6578 0001602  78.0621 262.6712  1.00268442 24838,1.00268442,0.0001602,GEO
41589,EUTELSAT 117 WEST B,2016,1436.08,5500.0,+,0.04,Active,1,GSO,USA,EUTELSAT,Commercial,Communications,Falcon,1 41589U 16038B   23080.43660654 -.00000029  00000+0  00000+0 0  9992,2 41589   0.0435   8.0555 0000127 320.4674 250.3423  1.00272775 24804,1.00272775,1.27e-05,GEO
41591,BRISAT,2016,1436.15,3540.0,+,0.02,Active,1,GSO,French Guiana,Indonesia,Commercial,Communications,Ariane,1 41591U 16039A   23080.79129854 -.00000214  00000+0  00000+0 0  9993,2 41591   0.0226 189.5079 0002089 172.4932 252.3904  1.00268426 24749,1.00268426,0.0002089,GEO
41592,ECHOSTAR 18,2016,1436.12,6300.0,+,0.02,Active,1,GSO,French Guiana,USA,Commercial,Communications,Ariane,1 41592U 16039B   23081.47965963 -.00000297  00000+0  00000+0 0  9990,2 41592   0.0193 164.6234 0001366 190.5082 295.8842  1.00271003 24764,1.00271003,0.0001366,GEO
41599,CARTOSAT-2C,2016,94.79,727.0,+,97.45,Active,1,LEO,India,India,Government,Earth Observation,PSLV,1 41599U 16040A   23081.22404291  .00011886  00000+0  56674-3 0  9991,2 41599  97.4459 142.7659 0013408 290.6924 140.9538 15.19170376374105,15.19170376,0.0013408,LEO
41600,SATHYABAMASAT,2016,92.66,-1.0,-,97.17,Inactive,0,LEO,India,India,Unknown,Unknown,Unknown,1 41600U 16040B   23080.89263182  .00099624  00000+0  15251-2 0  9999,2 41600  97.1743 133.7154 0008407 192.5196 167.5851 15.53977091375588,15.53977091,0.0008407,LEO
41601,SKYSAT-C1,2016,93.46,110.0,+,97.12,Active,1,LEO,India,USA,Commercial,Earth Observation,PSLV,1 41601U 16040C   23080.91731871  .00021869  00000+0  53631-3 0  9999,2 41601  97.1208 154.1072 0001537 128.4672 231.6713 15.40726435376665,15.40726435,0.0001537,LEO
41602,GHGSAT-D,2016,93.94,15.0,+,97.17,Active,1,LEO,India,Canada,Commercial,Earth Observation,PSLV,1 41602U 16040D   23081.34267199  .00020281  00000+0  63973-3 0  9992,2 41602  97.1675 123.0499 0006643 212.1879 147.8959 15.32875597375120,15.32875597,0.0006643,LEO
41603,LAPAN-A3,2016,94.62,115.0,+,97.18,Active,1,LEO,India,Indonesia,Government,Earth Observation,PSLV,1 41603U 16040E   23081.37536394  .00003596  00000+0  16069-3 0  9996,2 41603  97.1768 110.9359 0011111 261.9609 223.1156 15.21891757374280,15.21891757,0.0011111,LEO
